NORAD_CAT_ID,OBJECT_NAME,OBJECT_TYPE,EPOCH,MEAN_MOTION,ECCENTRICITY,INCLINATION,RA_OF_ASC_NODE,ARG_OF_PERICENTER,MEAN_ANOMALY,BSTAR,MEAN_MOTION_DOT,MEAN_MOTION_DDOT,TLE_LINE0,TLE_LINE1,TLE_LINE2,SEMIMAJOR_AXIS,PERIOD,APOGEE,PERIGEE,DECAYED
52313.0,STARLINK-3749,PAYLOAD,2024-08-13 22:43:35,15.08798279,0.0001454,53.2155,140.2643,50.3531,309.7589,-9.4854e-05,-1.795e-05,0.0,0 STARLINK-3749,1 52313U 22041BE  24226.94693459 -.00001795  00000-0 -94854-4 0  9996,2 52313  53.2155 140.2643 0001454  50.3531 309.7589 15.08798279129401,6918.008,95.44,540.879,538.867,0.0
52313.0,STARLINK-3749,PAYLOAD,2024-08-14 03:29:43,15.08839522,0.0001517,53.2149,139.3738,96.5227,263.5938,0.0012,0.00018861,0.0,0 STARLINK-3749,1 52313U 22041BE  24227.14564729  .00018861  00000-0  12000-2 0  9997,2 52313  53.2149 139.3738 0001517  96.5227 263.5938 15.08839522129437,6917.882,95.438,540.796,538.697,0.0
52313.0,STARLINK-3749,PAYLOAD,2024-08-14 11:26:39,15.08837272,0.0001434,53.2148,137.8842,87.7102,272.4054,0.001068,0.00016749,0.0,0 STARLINK-3749,1 52313U 22041BE  24227.47685102  .00016749  00000-0  10680-2 0  9997,2 52313  53.2148 137.8842 0001434  87.7102 272.4054 15.08837272129480,6917.889,95.438,540.746,538.762,0.0
52313.0,STARLINK-3749,PAYLOAD,2024-08-14 22:34:21,15.08853919,0.0001451,53.2152,135.8007,86.7609,273.3549,0.0010483,0.00016441,0.0,0 STARLINK-3749,1 52313U 22041BE  24227.94052628  .00016441  00000-0  10483-2 0  9990,2 52313  53.2152 135.8007 0001451  86.7609 273.3549 15.08853919129559,6917.838,95.437,540.707,538.699,0.0
52313.0,STARLINK-3749,PAYLOAD,2024-08-15 11:17:25,15.08865552,0.0001287,53.2131,133.4269,76.9878,283.1257,0.000288,4.302e-05,0.0,0 STARLINK-3749,1 52313U 22041BE  24228.47043495  .00004302  00000-0  28800-3 0  9997,2 52313  53.2131 133.4269 0001287  76.9878 283.1257 15.08865552129636,6917.802,95.436,540.558,538.777,0.0
52313.0,STARLINK-3749,PAYLOAD,2024-08-15 22:25:07,15.08853465,0.0001571,53.2153,131.3432,89.9351,270.1821,4.4617e-05,4.22e-06,0.0,0 STARLINK-3749,1 52313U 22041BE  24228.93411432  .00000422  00000-0  44617-4 0  9992,2 52313  53.2153 131.3432 0001571  89.9351 270.1821 15.08853465129706,6917.839,95.437,540.791,538.617,0.0
52313.0,STARLINK-3749,PAYLOAD,2024-08-16 00:00:30,15.08852802,0.0001639,53.216,131.0418,98.8922,261.2256,0.00036875,5.588e-05,0.0,0 STARLINK-3749,1 52313U 22041BE  24229.00035500  .00005588  00000-0  36875-3 0  9993,2 52313  53.2160 131.0418 0001639  98.8922 261.2256 15.08852802129711,6917.841,95.437,540.84,538.572,0.0
52313.0,STARLINK-3749,PAYLOAD,2024-08-17 03:02:03,15.08852622,0.0001473,53.2151,125.9885,100.9451,259.1707,6.495e-05,7.46e-06,0.0,0 STARLINK-3749,1 52313U 22041BE  24230.12642668  .00000746  00000-0  64950-4 0  9994,2 52313  53.2151 125.9885 0001473 100.9451 259.1707 15.08852622129884,6917.842,95.437,540.726,538.688,0.0
52313.0,STARLINK-3749,PAYLOAD,2024-08-17 17:20:32,15.08839678,0.0001826,53.216,123.3056,115.1893,244.9289,-0.00012911,-2.342e-05,0.0,0 STARLINK-3749,1 52313U 22041BE  24230.72259580 -.00002342  00000-0 -12911-3 0  9992,2 52313  53.2160 123.3056 0001826 115.1893 244.9289 15.08839678129979,6917.881,95.438,541.01,538.483,0.0
52313.0,STARLINK-3749,PAYLOAD,2024-08-17 22:06:41,15.08839585,0.0001645,53.2162,122.4146,108.018,252.0991,-1.5894e-06,-3.13e-06,0.0,0 STARLINK-3749,1 52313U 22041BE  24230.92131637 -.00000313  00000-0 -15894-5 0  9997,2 52313  53.2162 122.4146 0001645 108.0180 252.0991 15.08839585130003,6917.882,95.438,540.885,538.609,0.0
52313.0,STARLINK-3749,PAYLOAD,2024-08-18 02:52:50,15.08839635,0.0001642,53.2162,121.5267,113.7213,246.3951,-2.8717e-06,-3.34e-06,0.0,0 STARLINK-3749,1 52313U 22041BE  24231.12003272 -.00000334  00000-0 -28717-5 0  9994,2 52313  53.2162 121.5267 0001642 113.7213 246.3951 15.08839635130035,6917.882,95.438,540.882,538.611,0.0
52313.0,STARLINK-3749,PAYLOAD,2024-08-18 20:22:05,15.0884709,0.0001325,53.2157,118.2554,91.7573,268.3571,0.00010906,1.449e-05,0.0,0 STARLINK-3749,1 52313U 22041BE  24231.84867009  .00001449  00000-0  10906-3 0  9994,2 52313  53.2157 118.2554 0001325  91.7573 268.3571 15.08847090130141,6917.859,95.437,540.64,538.807,0.0
52313.0,STARLINK-3749,PAYLOAD,2024-08-18 21:57:28,15.08849163,0.0001463,53.216,117.959,107.3516,252.7636,0.000134,1.846e-05,0.0,0 STARLINK-3749,1 52313U 22041BE  24231.91490838  .00001846  00000-0  13400-3 0  9997,2 52313  53.2160 117.9590 0001463 107.3516 252.7636 15.08849163130158,6917.852,95.437,540.729,538.705,0.0
52313.0,STARLINK-3749,PAYLOAD,2024-08-19 09:05:09,15.08850654,0.0001325,53.2157,115.878,82.5146,277.5996,0.00016126,2.28e-05,0.0,0 STARLINK-3749,1 52313U 22041BE  24232.37858694  .00002280  00000-0  16126-3 0  9997,2 52313  53.2157 115.8780 0001325  82.5146 277.5996 15.08850654130221,6917.848,95.437,540.629,538.796,0.0
52313.0,STARLINK-3749,PAYLOAD,2024-08-20 02:34:25,15.08828437,0.0001638,53.217,112.6077,96.5291,263.5888,-0.00010492,-1.957e-05,0.0,0 STARLINK-3749,1 52313U 22041BE  24233.10724050 -.00001957  00000-0 -10492-3 0  9999,2 52313  53.2170 112.6077 0001638  96.5291 263.5888 15.08828437130334,6917.916,95.438,540.914,538.648,0.0
52313.0,STARLINK-3749,PAYLOAD,2024-08-20 20:03:39,15.08850836,0.0001358,53.2156,109.3379,92.4115,267.7032,0.00028042,4.179e-05,0.0,0 STARLINK-3749,1 52313U 22041BE  24233.83587319  .00004179  00000-0  28042-3 0  9991,2 52313  53.2156 109.3379 0001358  92.4115 267.7032 15.08850836130442,6917.847,95.437,540.652,538.773,0.0
52313.0,STARLINK-3749,PAYLOAD,2024-08-20 23:14:25,15.08857869,0.000152,53.2154,108.7433,86.659,273.4576,0.0010149,0.00015909,0.0,0 STARLINK-3749,1 52313U 22041BE  24233.96835592  .00015909  00000-0  10149-2 0  9995,2 52313  53.2154 108.7433 0001520  86.6590 273.4576 15.08857869130469,6917.826,95.436,540.742,538.639,0.0
52313.0,STARLINK-3749,PAYLOAD,2024-08-21 21:29:50,15.08853191,0.0001735,53.2156,104.5792,82.5858,277.5331,0.00069836,0.00010848,0.0,0 STARLINK-3749,1 52313U 22041BE  24234.89571789  .00010848  00000-0  69836-3 0  9998,2 52313  53.2156 104.5792 0001735  82.5858 277.5331 15.08853191130607,6917.84,95.437,540.905,538.505,0.0
